YAOGAN-30 03B           
1 43029U 17075B   26068.66083794  .00004149  00000+0  31129-3 0  9999
2 43029  34.9935 156.6050 0002510  89.1241 270.9754 15.02124587452380
STARLINK-6327           
1 56522U 23065V   26068.47346905  .00072978  00000+0  52820-2 0  9997
2 56522  43.0026 211.3856 0001792 256.5644 103.4999 15.03098168156596
